{
    "links": {
        "self": "http://www.neowsapp.com/rest/v1/neo/3698547?api_key=iIulBulltgU6a56xZRHN4H3l9WmuAYTsLGpBGhQ2"
    },
    "id": "3698547",
    "neo_reference_id": "3698547",
    "name": "(2014 HV198)",
    "designation": "2014 HV198",
    "nasa_jpl_url": "http://ssd.jpl.nasa.gov/sbdb.cgi?sstr=3698547",
    "absolute_magnitude_h": 26.4,
    "estimated_diameter": {
        "kilometers": {
            "estimated_diameter_min": 0.0139493823,
            "estimated_diameter_max": 0.0311917671
        },
        "meters": {
            "estimated_diameter_min": 13.9493822934,
            "estimated_diameter_max": 31.1917670523
        },
        "miles": {
            "estimated_diameter_min": 0.0086677416,
            "estimated_diameter_max": 0.0193816595
        },
        "feet": {
            "estimated_diameter_min": 45.7656914036,
            "estimated_diameter_max": 102.3351970157
        }
    },
    "is_potentially_hazardous_asteroid": false,
    "close_approach_data": [
        {
            "close_approach_date": "2014-05-15",
            "close_approach_date_full": "2014-May-15 05:25",
            "epoch_date_close_approach": 1400131500000,
            "relative_velocity": {
                "kilometers_per_second": "9.7135021298",
                "kilometers_per_hour": "34968.6076673846",
                "miles_per_hour": "21728.1329142146"
            },
            "miss_distance": {
                "astronomical": "0.0955802871",
                "lunar": "37.1807316819",
                "kilometers": "14298607.364148477",
                "miles": "8884742.6250919026"
            },
            "orbiting_body": "Earth"
        }
    ],
    "orbital_data": {
        "orbit_id": "6",
        "orbit_determination_date": "2017-04-06 08:40:47",
        "first_observation_date": "2014-04-28",
        "last_observation_date": "2014-04-29",
        "data_arc_in_days": 1,
        "observations_used": 13,
        "orbit_uncertainty": "9",
        "minimum_orbit_intersection": ".0917465",
        "jupiter_tisserand_invariant": "5.070",
        "epoch_osculation": "2456776.5",
        "eccentricity": ".2193385324021044",
        "semi_major_axis": "1.253592168537273",
        "inclination": "16.33426213569988",
        "ascending_node_longitude": "223.7180289292314",
        "orbital_period": "512.6640125653547",
        "perihelion_distance": ".9786311020595359",
        "perihelion_argument": "73.50580101126124",
        "aphelion_distance": "1.52855323501501",
        "perihelion_time": "2456854.261867318838",
        "mean_anomaly": "305.394504883034",
        "mean_motion": ".7022142985979672",
        "equinox": "J2000",
        "orbit_class": {
            "orbit_class_type": "APO",
            "orbit_class_description": "Near-Earth asteroid orbits which cross the Earth’s orbit similar to that of 1862 Apollo",
            "orbit_class_range": "a (semi-major axis) > 1.0 AU; q (perihelion) < 1.017 AU"
        }
    },
    "is_sentry_object": false
}